{"type": "FeatureCollection", "features": [ {"type": "Feature", "properties": {"norad_id": 57401, "name": "TIANMU-1 09", "group": "weather", "lat": 61.43712884206469, "lon": 24.314608700591407, "alt_km": 470.9908631916005, "timestamp": "2025-12-14T18:52:55.142365+00:00", "meta": {"OBJECT_NAME": "TIANMU-1 09", "OBJECT_ID": "2023-101C", "EPOCH": "2025-12-13T23:45:05.958720", "MEAN_MOTION": 15.28110763, "ECCENTRICITY": 0.00067854, "INCLINATION": 97.2827, "RA_OF_ASC_NODE": 37.1225, "ARG_OF_PERICENTER": 80.4916, "MEAN_ANOMALY": 279.7091, "EPHEMERIS_TYPE": 0, "CLASSIFICATION_TYPE": "U", "NORAD_CAT_ID": 57401, "ELEMENT_SET_NO": 999, "REV_AT_EPOCH": 13334, "BSTAR": 0.00030581741, "MEAN_MOTION_DOT": 8.316e-05, "MEAN_MOTION_DDOT": 0}, "tle": {"line1": "1 57401U 23101C   25347.98965230  .00008316  00000+0  30582-3 0  9995", "line2": "2 57401  97.2827  37.1225 0006785  80.4916 279.7091 15.28110763133341"}}, "geometry": {"type": "Point", "coordinates": [24.314608700591407, 61.43712884206469]}}, {"type": "Feature", "properties": {"norad_id": 57402, "name": "TIANMU-1 10", "group": "weather", "lat": -53.714463708274046, "lon": -151.28924578035412, "alt_km": 493.86795730682206, "timestamp": "2025-12-14T18:52:55.142375+00:00", "meta": {"OBJECT_NAME": "TIANMU-1 10", "OBJECT_ID": "2023-101D", "EPOCH": "2025-12-13T23:00:04.946976", "MEAN_MOTION": 15.28101345, "ECCENTRICITY": 0.00084846, "INCLINATION": 97.2908, "RA_OF_ASC_NODE": 37.943, "ARG_OF_PERICENTER": 79.8985, "MEAN_ANOMALY": 280.3211, "EPHEMERIS_TYPE": 0, "CLASSIFICATION_TYPE": "U", "NORAD_CAT_ID": 57402, "ELEMENT_SET_NO": 999, "REV_AT_EPOCH": 13333, "BSTAR": 0.00034053998, "MEAN_MOTION_DOT": 9.27e-05, "MEAN_MOTION_DDOT": 0}, "tle": {"line1": "1 57402U 23101D   25347.95839059  .00009270  00000+0  34054-3 0  9990", "line2": "2 57402  97.2908  37.9430 0008484  79.8985 280.3211 15.28101345133331"}}, "geometry": {"type": "Point", "coordinates": [-151.28924578035412, -53.714463708274046]}}, {"type": "Feature", "properties": {"norad_id": 57490, "name": "FENGYUN 3F", "group": "weather", "lat": 56.804614757976736, "lon": 43.499289268023524, "alt_km": 819.8782809580871, "timestamp": "2025-12-14T18:52:55.142386+00:00", "meta": {"OBJECT_NAME": "FENGYUN 3F", "OBJECT_ID": "2023-111A", "EPOCH": "2025-12-14T00:00:25.666848", "MEAN_MOTION": 14.1989395, "ECCENTRICITY": 6.772e-05, "INCLINATION": 98.7082, "RA_OF_ASC_NODE": 56.2734, "ARG_OF_PERICENTER": 104.4235, "MEAN_ANOMALY": 255.7017, "EPHEMERIS_TYPE": 0, "CLASSIFICATION_TYPE": "U", "NORAD_CAT_ID": 57490, "ELEMENT_SET_NO": 999, "REV_AT_EPOCH": 12258, "BSTAR": 7.5688988e-05, "MEAN_MOTION_DOT": 1.17e-06, "MEAN_MOTION_DDOT": 0}, "tle": {"line1": "1 57490U 23111A   25348.00029707  .00000117  00000+0  75689-4 0  9997", "line2": "2 57490  98.7082  56.2734 0000677 104.4235 255.7017 14.19893950122581"}}, "geometry": {"type": "Point", "coordinates": [43.499289268023524, 56.804614757976736]}}, {"type": "Feature", "properties": {"norad_id": 58584, "name": "ARKTIKA-M 2", "group": "weather", "lat": -36.83457338431681, "lon": 16.891798727067886, "alt_km": 3133.876969066062, "timestamp": "2025-12-14T18:52:55.142400+00:00", "meta": {"OBJECT_NAME": "ARKTIKA-M 2", "OBJECT_ID": "2023-198A", "EPOCH": "2025-12-08T20:10:13.977120", "MEAN_MOTION": 2.0060476, "ECCENTRICITY": 0.68646991, "INCLINATION": 63.2247, "RA_OF_ASC_NODE": 175.3152, "ARG_OF_PERICENTER": 268.1185, "MEAN_ANOMALY": 18.8267, "EPHEMERIS_TYPE": 0, "CLASSIFICATION_TYPE": "U", "NORAD_CAT_ID": 58584, "ELEMENT_SET_NO": 999, "REV_AT_EPOCH": 1450, "BSTAR": 0, "MEAN_MOTION_DOT": 1.66e-06, "MEAN_MOTION_DDOT": 0}, "tle": {"line1": "1 58584U 23198A   25342.84043955  .00000166  00000+0  00000+0 0  9998", "line2": "2 58584  63.2247 175.3152 6864699 268.1185  18.8267  2.00604760 14506"}}, "geometry": {"type": "Point", "coordinates": [16.891798727067886, -36.83457338431681]}}, {"type": "Feature", "properties": {"norad_id": 58645, "name": "TIANMU-1 11", "group": "weather", "lat": 27.505377239319245, "lon": 4.514698908263894, "alt_km": 490.41891878867955, "timestamp": "2025-12-14T18:52:55.142414+00:00", "meta": {"OBJECT_NAME": "TIANMU-1 11", "OBJECT_ID": "2023-205A", "EPOCH": "2025-12-13T23:51:31.326912", "MEAN_MOTION": 15.24621187, "ECCENTRICITY": 0.00078112, "INCLINATION": 97.3611, "RA_OF_ASC_NODE": 7.5955, "ARG_OF_PERICENTER": 305.1936, "MEAN_ANOMALY": 54.857, "EPHEMERIS_TYPE": 0, "CLASSIFICATION_TYPE": "U", "NORAD_CAT_ID": 58645, "ELEMENT_SET_NO": 999, "REV_AT_EPOCH": 10928, "BSTAR": 0.0003081262, "MEAN_MOTION_DOT": 7.539e-05, "MEAN_MOTION_DDOT": 0}, "tle": {"line1": "1 58645U 23205A   25347.99411258  .00007539  00000+0  30813-3 0  9991", "line2": "2 58645  97.3611   7.5955 0007811 305.1936  54.8570 15.24621187109288"}}, "geometry": {"type": "Point", "coordinates": [4.514698908263894, 27.505377239319245]}}, {"type": "Feature", "properties": {"norad_id": 58646, "name": "TIANMU-1 12", "group": "weather", "lat": -58.357152515938644, "lon": 176.07146112201696, "alt_km": 496.49932103897936, "timestamp": "2025-12-14T18:52:55.142424+00:00", "meta": {"OBJECT_NAME": "TIANMU-1 12", "OBJECT_ID": "2023-205B", "EPOCH": "2025-12-14T00:30:27.893088", "MEAN_MOTION": 15.24503875, "ECCENTRICITY": 0.00058342, "INCLINATION": 97.3599, "RA_OF_ASC_NODE": 7.4272, "ARG_OF_PERICENTER": 285.6476, "MEAN_ANOMALY": 74.4118, "EPHEMERIS_TYPE": 0, "CLASSIFICATION_TYPE": "U", "NORAD_CAT_ID": 58646, "ELEMENT_SET_NO": 999, "REV_AT_EPOCH": 10927, "BSTAR": 0.00030784834, "MEAN_MOTION_DOT": 7.503e-05, "MEAN_MOTION_DDOT": 0}, "tle": {"line1": "1 58646U 23205B   25348.02115617  .00007503  00000+0  30785-3 0  9996", "line2": "2 58646  97.3599   7.4272 0005834 285.6476  74.4118 15.24503875109277"}}, "geometry": {"type": "Point", "coordinates": [176.07146112201696, -58.357152515938644]}}, {"type": "Feature", "properties": {"norad_id": 58647, "name": "TIANMU-1 13", "group": "weather", "lat": 54.71618414476762, "lon": -2.148145277229372, "alt_km": 490.77723181242163, "timestamp": "2025-12-14T18:52:55.142435+00:00", "meta": {"OBJECT_NAME": "TIANMU-1 13", "OBJECT_ID": "2023-205C", "EPOCH": "2025-12-13T23:44:12.326784", "MEAN_MOTION": 15.2454744, "ECCENTRICITY": 0.00060356, "INCLINATION": 97.3627, "RA_OF_ASC_NODE": 7.597, "ARG_OF_PERICENTER": 261.5088, "MEAN_ANOMALY": 98.5466, "EPHEMERIS_TYPE": 0, "CLASSIFICATION_TYPE": "U", "NORAD_CAT_ID": 58647, "ELEMENT_SET_NO": 999, "REV_AT_EPOCH": 10926, "BSTAR": 0.00031577821, "MEAN_MOTION_DOT": 7.708e-05, "MEAN_MOTION_DDOT": 0}, "tle": {"line1": "1 58647U 23205C   25347.98903156  .00007708  00000+0  31578-3 0  9992", "line2": "2 58647  97.3627   7.5970 0006035 261.5088  98.5466 15.24547440109260"}}, "geometry": {"type": "Point", "coordinates": [-2.148145277229372, 54.71618414476762]}}, {"type": "Feature", "properties": {"norad_id": 58648, "name": "TIANMU-1 14", "group": "weather", "lat": 33.30701462741204, "lon": -167.40304883705642, "alt_km": 492.40215167186943, "timestamp": "2025-12-14T18:52:55.142445+00:00", "meta": {"OBJECT_NAME": "TIANMU-1 14", "OBJECT_ID": "2023-205D", "EPOCH": "2025-12-14T00:54:50.123232", "MEAN_MOTION": 15.24531178, "ECCENTRICITY": 0.00068335, "INCLINATION": 97.3559, "RA_OF_ASC_NODE": 6.9927, "ARG_OF_PERICENTER": 267.1104, "MEAN_ANOMALY": 92.9351, "EPHEMERIS_TYPE": 0, "CLASSIFICATION_TYPE": "U", "NORAD_CAT_ID": 58648, "ELEMENT_SET_NO": 999, "REV_AT_EPOCH": 10927, "BSTAR": 0.00029602879, "MEAN_MOTION_DOT": 7.219e-05, "MEAN_MOTION_DDOT": 0}, "tle": {"line1": "1 58648U 23205D   25348.03808013  .00007219  00000+0  29603-3 0  9999", "line2": "2 58648  97.3559   6.9927 0006833 267.1104  92.9351 15.24531178109270"}}, "geometry": {"type": "Point", "coordinates": [-167.40304883705642, 33.30701462741204]}}, {"type": "Feature", "properties": {"norad_id": 58660, "name": "TIANMU-1 19", "group": "weather", "lat": 64.81525427736686, "lon": 83.68811521278245, "alt_km": 478.6436410460292, "timestamp": "2025-12-14T18:52:55.142455+00:00", "meta": {"OBJECT_NAME": "TIANMU-1 19", "OBJECT_ID": "2023-208A", "EPOCH": "2025-12-13T23:43:58.355904", "MEAN_MOTION": 15.27881403, "ECCENTRICITY": 0.00041425, "INCLINATION": 97.4384, "RA_OF_ASC_NODE": 99.0232, "ARG_OF_PERICENTER": 247.0715, "MEAN_ANOMALY": 113.0087, "EPHEMERIS_TYPE": 0, "CLASSIFICATION_TYPE": "U", "NORAD_CAT_ID": 58660, "ELEMENT_SET_NO": 999, "REV_AT_EPOCH": 10901, "BSTAR": 0.0003970762, "MEAN_MOTION_DOT": 0.0001074, "MEAN_MOTION_DDOT": 0}, "tle": {"line1": "1 58660U 23208A   25347.98886986  .00010740  00000+0  39708-3 0  9994", "line2": "2 58660  97.4384  99.0232 0004142 247.0715 113.0087 15.27881403109014"}}, "geometry": {"type": "Point", "coordinates": [83.68811521278245, 64.81525427736686]}}, {"type": "Feature", "properties": {"norad_id": 58661, "name": "TIANMU-1 20", "group": "weather", "lat": 30.76356469828592, "lon": -75.27441463686937, "alt_km": 478.37909604318247, "timestamp": "2025-12-14T18:52:55.142466+00:00", "meta": {"OBJECT_NAME": "TIANMU-1 20", "OBJECT_ID": "2023-208B", "EPOCH": "2025-12-13T23:23:08.002752", "MEAN_MOTION": 15.29071714, "ECCENTRICITY": 0.00063155, "INCLINATION": 97.4322, "RA_OF_ASC_NODE": 99.4575, "ARG_OF_PERICENTER": 260.7005, "MEAN_ANOMALY": 99.3521, "EPHEMERIS_TYPE": 0, "CLASSIFICATION_TYPE": "U", "NORAD_CAT_ID": 58661, "ELEMENT_SET_NO": 999, "REV_AT_EPOCH": 10908, "BSTAR": 0.00036833683, "MEAN_MOTION_DOT": 0.00010329, "MEAN_MOTION_DDOT": 0}, "tle": {"line1": "1 58661U 23208B   25347.97439818  .00010329  00000+0  36834-3 0  9992", "line2": "2 58661  97.4322  99.4575 0006315 260.7005  99.3521 15.29071714109083"}}, "geometry": {"type": "Point", "coordinates": [-75.27441463686937, 30.76356469828592]}}]}